{
  "norad_id": 68876,
  "name": "KUIPER-00480",
  "history": [
    {
      "epoch": "2026-05-02T10:00:03.000096Z",
      "apogee_km": 459.8286275025621,
      "perigee_km": 450.7948082974981,
      "latitude_deg": 28.493352996342008,
      "longitude_deg": -111.69674135550372,
      "height_km": 452.56546007519404,
      "semi_major_axis_km": 6833.44871790003,
      "eccentricity": 0.000661,
      "inclination_deg": 51.8757,
      "raan_deg": 103.7143,
      "arg_perigee_deg": 117.1036,
      "mean_anomaly_deg": 25.6571,
      "mean_motion_rev_day": 15.3689024
    }
  ]
}