{"fetched_at":"2026-05-03T09:24:26Z","count":17359,"tles":[{"name":"KUIPER-00480","line1":"1 68876U 26095N   26122.41670139  .00073411  00000+0  19942-2 0  9993","line2":"2 68876  51.8757 103.7143 0006610 117.1036  25.6571 15.36890240  1916","category":"Other"}]}